NOAA 1 [-]              
1 04793U 70106A   17128.76942693 -.00000034  00000-0  72195-4 0  9998
2 04793 101.8044 194.0447 0031463 334.2650 134.3204 12.53980329123737
NOAA 2 [-]              
1 06235U 72082A   17128.80220885 -.00000032  00000-0  80924-4 0  9990
2 06235 101.6781  94.5633 0004456  65.0265 354.4285 12.53092331 38286
NOAA 3 [-]              
1 06920U 73086A   17128.88624943 -.00000070  00000-0 -19448-3 0  9992
2 06920 101.9365  99.2191 0006685 146.3755 268.4929 12.40353347969489
NOAA 4 [-]              
1 07529U 74089A   17128.88084949 -.00000049  00000-0 -27917-4 0  9995
2 07529 101.6375  98.4940 0009262  95.8457 318.4561 12.53109949942870
NOAA 5 [-]              
1 09057U 76077A   17128.95917921 -.00000054  00000-0 -81450-4 0  9993
2 09057 101.8264 112.2258 0009927   4.8482  59.3021 12.37764523842924
TIROS N [P]             
1 11060U 78096A   17128.75337564  .00000011  00000-0  27236-4 0  9993
2 11060  98.8983 178.6566 0011795  94.3389 265.9134 14.18155101207391
NOAA 6 [P]              
1 11416U 79057A   17128.95528287  .00000038  00000-0  29823-4 0  9995
2 11416  98.5768 117.2063 0010577  11.4552 348.6871 14.33415381974242
NOAA 7 [-]              
1 12553U 81059A   17128.57112271 -.00000010  00000-0  17812-4 0  9999
2 12553  99.0481 109.5876 0011752  14.9210  94.0977 14.17215864853492
NOAA 8 [-]              
1 13923U 83022A   17128.92545398  .00000030  00000-0  29226-4 0  9995
2 13923  98.5107 120.0001 0014076 279.6854  80.2737 14.28584431776033
NOAA 9 [P]              
1 15427U 84123A   17128.83200301 -.00000007  00000-0  18777-4 0  9995
2 15427  98.8005  73.2725 0015964  73.3443 339.8011 14.15997726672579
NOAA 10 [-]             
1 16969U 86073A   17128.52548507  .00000008  00000-0  20392-4 0  9998
2 16969  98.4618 138.3915 0012881  37.5467  74.3680 14.28006827594779
NOAA 11 [-]             
1 19531U 88089A   17128.88284027 -.00000040  00000-0  64293-6 0  9995
2 19531  98.5549 188.9549 0011904 146.4579 213.7351 14.15207500476943
NOAA 12 [-]             
1 21263U 91032A   17128.93001644 -.00000004  00000-0  16449-4 0  9998
2 21263  98.5664 153.8474 0014496  40.6740 319.5520 14.25841213350870
NOAA 13 [-]             
1 22739U 93050A   17128.87109950 -.00000011  00000-0  16727-4 0  9998
2 22739  98.5638 179.3357 0008362 288.8008  71.2257 14.12682150223643
NOAA 14 [-]             
1 23455U 94089A   17128.90805216 -.00000020  00000-0  12145-4 0  9999
2 23455  98.6882 204.9518 0008331 267.4580  92.5640 14.14096900153041
NOAA 15 [B]             
1 25338U 98030A   17128.91643184  .00000038  00000-0  35002-4 0  9991
2 25338  98.7830 139.7467 0009812 326.1363  33.9189 14.25790617987143
NOAA 16 [-]             
1 26536U 00055A   17128.91806445 -.00000001  00000-0  23130-4 0  9993
2 26536  98.8577 202.0819 0011608  75.5785 284.6674 14.13175725153858
NOAA 17 [-]             
1 27453U 02032A   17128.94185887 -.00000015  00000-0  11666-4 0  9998
2 27453  98.4307  94.9731 0010939 319.8997  40.1374 14.24984679773162
NOAA 18 [B]             
1 28654U 05018A   17128.94879603 -.00000013  00000-0  18580-4 0  9995
2 28654  99.1849 150.1993 0014450 177.6172 182.5070 14.12335862616629
NOAA 19 [+]             
1 33591U 09005A   17128.94636576  .00000056  00000-0  55555-4 0  9990
2 33591  99.0891  95.2217 0014510  26.6162 333.5751 14.12177585424850
NPP [+]                 
1 37849U 11061A   17128.96592851 -.00000010  00000-0  15940-4 0  9999
2 37849  98.7334  68.2171 0000458  97.6627 321.7150 14.19547298286539
